NORAD_CAT_ID,OBJECT_NAME,OBJECT_TYPE,EPOCH,MEAN_MOTION,ECCENTRICITY,INCLINATION,RA_OF_ASC_NODE,ARG_OF_PERICENTER,MEAN_ANOMALY,BSTAR,MEAN_MOTION_DOT,MEAN_MOTION_DDOT,TLE_LINE0,TLE_LINE1,TLE_LINE2,SEMIMAJOR_AXIS,PERIOD,APOGEE,PERIGEE,DECAYED
53159.0,STARLINK-4111,PAYLOAD,2023-07-26 05:00:11,15.08840009,0.0001501,53.2126,142.4199,75.2703,284.8456,8.4669e-05,1.06e-05,0.0,0 STARLINK-4111,1 53159U 22083AD  23207.20847221  .00001060  00000-0  84669-4 0  9992,2 53159  53.2126 142.4199 0001501  75.2703 284.8456 15.08840009 56817,6917.88,95.438,540.784,538.707,0.0
53159.0,STARLINK-4111,PAYLOAD,2023-07-27 01:40:12,15.08841664,0.0001019,53.2149,138.556,79.5296,280.5811,8.9684e-05,1.14e-05,0.0,0 STARLINK-4111,1 53159U 22083AD  23208.06958866  .00001140  00000-0  89684-4 0  9996,2 53159  53.2149 138.5560 0001019  79.5296 280.5811 15.08841664 57578,6917.875,95.437,540.445,539.035,0.0
53159.0,STARLINK-4111,PAYLOAD,2023-07-27 04:50:58,15.08849454,0.00015,53.2164,137.9606,100.7212,259.3949,0.00012185,1.652e-05,0.0,0 STARLINK-4111,1 53159U 22083AD  23208.20206280  .00001652  00000-0  12185-3 0  9997,2 53159  53.2164 137.9606 0001500 100.7212 259.3949 15.08849454 57592,6917.851,95.437,540.754,538.679,0.0
53159.0,STARLINK-4111,PAYLOAD,2023-07-27 19:09:28,15.08833379,0.0001684,53.2174,135.2872,76.5476,283.5704,-9.1524e-05,-1.744e-05,0.0,0 STARLINK-4111,1 53159U 22083AD  23208.79824291 -.00001744  00000-0 -91524-4 0  9998,2 53159  53.2174 135.2872 0001684  76.5476 283.5704 15.08833379 57681,6917.901,95.438,540.931,538.601,0.0
53159.0,STARLINK-4111,PAYLOAD,2023-07-28 01:31:00,15.08832565,0.0001266,53.2172,134.0968,90.7693,269.3445,-8.7674e-05,-1.683e-05,0.0,0 STARLINK-4111,1 53159U 22083AD  23209.06320287 -.00001683  00000-0 -87674-4 0  9998,2 53159  53.2172 134.0968 0001266  90.7693 269.3445 15.08832565 57092,6917.903,95.438,540.644,538.892,0.0
53159.0,STARLINK-4111,PAYLOAD,2023-07-29 01:21:46,15.08853899,0.0001321,53.2174,129.6363,86.8084,273.3059,6.7006e-05,7.79e-06,0.0,0 STARLINK-4111,1 53159U 22083AD  23210.05678538  .00000779  00000-0  67006-4 0  9994,2 53159  53.2174 129.6363 0001321  86.8084 273.3059 15.08853899 57870,6917.838,95.437,540.617,538.789,0.0
53159.0,STARLINK-4111,PAYLOAD,2023-07-29 18:51:01,15.08839291,0.0001264,53.2173,126.3636,69.872,290.2408,0.0001004,1.31e-05,0.0,0 STARLINK-4111,1 53159U 22083AD  23210.78543454  .00001310  00000-0  10040-3 0  9999,2 53159  53.2173 126.3636 0001264  69.8720 290.2408 15.08839291 57988,6917.883,95.438,540.622,538.873,0.0
53159.0,STARLINK-4111,PAYLOAD,2023-07-31 01:03:21,15.08845697,0.0001318,53.2183,120.7198,102.1828,257.9312,-6.6276e-05,-1.343e-05,0.0,0 STARLINK-4111,1 53159U 22083AD  23212.04399504 -.00001343  00000-0 -66276-4 0  9996,2 53159  53.2183 120.7198 0001318 102.1828 257.9312 15.08845697 58173,6917.863,95.437,540.64,538.816,0.0
53159.0,STARLINK-4111,PAYLOAD,2023-07-31 23:18:45,15.08830627,0.0001224,53.2179,116.5546,106.2502,253.8625,-5.3683e-05,-1.142e-05,0.0,0 STARLINK-4111,1 53159U 22083AD  23212.97136535 -.00001142  00000-0 -53683-4 0  9996,2 53159  53.2179 116.5546 0001224 106.2502 253.8625 15.08830627 58313,6917.909,95.438,540.621,538.927,0.0
53159.0,STARLINK-4111,PAYLOAD,2023-08-02 00:44:55,15.08842493,0.0001162,53.2177,111.7965,105.7023,254.4097,7.2617e-05,8.68e-06,0.0,0 STARLINK-4111,1 53159U 22083AD  23214.03119816  .00000868  00000-0  72617-4 0  9998,2 53159  53.2177 111.7965 0001162 105.7023 254.4097 15.08842493 58477,6917.873,95.437,540.542,538.934,0.0
53159.0,STARLINK-4111,PAYLOAD,2023-08-03 22:51:07,15.08839126,0.0001229,53.2178,103.1692,84.9873,275.126,-2.7279e-05,-7.22e-06,0.0,0 STARLINK-4111,1 53159U 22083AD  23215.95216655 -.00000722  00000-0 -27279-4 0  9994,2 53159  53.2178 103.1692 0001229  84.9873 275.1260 15.08839126 58768,6917.883,95.438,540.598,538.898,0.0
53159.0,STARLINK-4111,PAYLOAD,2023-08-04 22:41:53,15.08847704,0.0001197,53.2176,98.7099,84.1726,275.9403,-3.6278e-06,-3.46e-06,0.0,0 STARLINK-4111,1 53159U 22083AD  23216.94576082 -.00000346  00000-0 -36278-5 0  9999,2 53159  53.2176  98.7099 0001197  84.1726 275.9403 15.08847704 58914,6917.857,95.437,540.55,538.894,0.0
53159.0,STARLINK-4111,PAYLOAD,2023-08-06 01:43:26,15.08851311,0.0001075,53.2169,93.6544,86.0437,274.0678,0.00018979,2.735e-05,0.0,0 STARLINK-4111,1 53159U 22083AD  23218.07183215  .00002735  00000-0  18979-3 0  9995,2 53159  53.2169  93.6544 0001075  86.0437 274.0678 15.08851311 59082,6917.846,95.437,540.454,538.967,0.0
53159.0,STARLINK-4111,PAYLOAD,2023-08-06 16:01:56,15.08826151,7.43e-05,53.2169,90.9788,92.4942,267.6136,-0.00010503,-1.958e-05,0.0,0 STARLINK-4111,1 53159U 22083AD  23218.66801878 -.00001958  00000-0 -10503-3 0  9995,2 53159  53.2169  90.9788 0000743  92.4942 267.6136 15.08826151 59176,6917.923,95.438,540.302,539.274,0.0
53159.0,STARLINK-4111,PAYLOAD,2023-08-07 07:55:48,15.08832951,9.88e-05,53.2169,88.0053,98.9459,261.1645,-2.2316e-05,-6.43e-06,0.0,0 STARLINK-4111,1 53159U 22083AD  23219.33041671 -.00000643  00000-0 -22316-4 0  9993,2 53159  53.2169  88.0053 0000988  98.9459 261.1645 15.08832951 59274,6917.902,95.438,540.45,539.083,0.0
53159.0,STARLINK-4111,PAYLOAD,2023-08-07 19:03:29,15.08842366,9.64e-05,53.2169,85.9236,98.002,262.1082,0.00011097,1.479e-05,0.0,0 STARLINK-4111,1 53159U 22083AD  23219.79408991  .00001479  00000-0  11097-3 0  9994,2 53159  53.2169  85.9236 0000964  98.0020 262.1082 15.08842366 59347,6917.873,95.437,540.405,539.071,0.0
53159.0,STARLINK-4111,PAYLOAD,2023-08-07 23:49:38,15.08850401,9.96e-05,53.2162,85.0313,98.9265,261.184,0.00021431,3.126e-05,0.0,0 STARLINK-4111,1 53159U 22083AD  23219.99280687  .00003126  00000-0  21431-3 0  9990,2 53159  53.2162  85.0313 0000996  98.9265 261.1840 15.08850401 59375,6917.849,95.437,540.403,539.025,0.0
53159.0,STARLINK-4111,PAYLOAD,2023-08-08 17:18:53,15.08843223,9.73e-05,53.2161,81.7603,103.3364,256.7737,0.00034165,5.154e-05,0.0,0 STARLINK-4111,1 53159U 22083AD  23220.72145156  .00005154  00000-0  34165-3 0  9995,2 53159  53.2161  81.7603 0000973 103.3364 256.7737 15.08843223 59486,6917.871,95.437,540.409,539.062,0.0
53159.0,STARLINK-4111,PAYLOAD,2023-08-08 23:40:25,15.08860884,8.87e-05,53.2158,80.5715,103.7998,256.3093,0.00052381,8.063e-05,0.0,0 STARLINK-4111,1 53159U 22083AD  23220.98640497  .00008063  00000-0  52381-3 0  9993,2 53159  53.2158  80.5715 0000887 103.7998 256.3093 15.08860884 59522,6917.817,95.436,540.295,539.068,0.0
53159.0,STARLINK-4111,PAYLOAD,2023-08-09 09:12:44,15.08849205,0.0001099,53.2155,78.7876,85.886,274.2258,0.00012504,1.703e-05,0.0,0 STARLINK-4111,1 53159U 22083AD  23221.38384567  .00001703  00000-0  12504-3 0  9998,2 53159  53.2155  78.7876 0001099  85.8860 274.2258 15.08849205 59582,6917.852,95.437,540.478,538.957,0.0
53159.0,STARLINK-4111,PAYLOAD,2023-08-09 17:09:40,15.0883408,0.0001039,53.2156,77.3007,77.8443,282.2665,-0.00022267,-3.829e-05,0.0,0 STARLINK-4111,1 53159U 22083AD  23221.71504930 -.00003829  00000-0 -22267-3 0  9993,2 53159  53.2156  77.3007 0001039  77.8443 282.2665 15.08834080 59638,6917.898,95.438,540.482,539.045,0.0
53159.0,STARLINK-4111,PAYLOAD,2023-08-10 17:00:27,15.08839811,9.24e-05,53.2163,72.8393,79.9149,280.1947,-3.0525e-05,-7.73e-06,0.0,0 STARLINK-4111,1 53159U 22083AD  23222.70865073 -.00000773  00000-0 -30525-4 0  9993,2 53159  53.2163  72.8393 0000924  79.9149 280.1947 15.08839811 59785,6917.881,95.438,540.385,539.107,0.0
53159.0,STARLINK-4111,PAYLOAD,2023-08-11 18:26:37,15.08843019,0.0001016,53.2168,68.0829,74.1176,285.9928,0.00020755,3.017e-05,0.0,0 STARLINK-4111,1 53159U 22083AD  23223.76849141  .00003017  00000-0  20755-3 0  9993,2 53159  53.2168  68.0829 0001016  74.1176 285.9928 15.08843019 59946,6917.871,95.437,540.439,539.033,0.0
53159.0,STARLINK-4111,PAYLOAD,2023-08-12 08:45:06,15.08838684,0.0001077,53.216,65.4064,47.6222,312.4861,0.00012061,1.632e-05,0.0,0 STARLINK-4111,1 53159U 22083AD  23224.36465404  .00001632  00000-0  12061-3 0  9998,2 53159  53.2160  65.4064 0001077  47.6222 312.4861 15.08838684 60030,6917.884,95.438,540.494,539.004,0.0
53159.0,STARLINK-4111,PAYLOAD,2023-08-12 19:52:47,15.08845109,8.23e-05,53.2167,63.325,83.1169,276.9917,0.00018884,2.719e-05,0.0,0 STARLINK-4111,1 53159U 22083AD  23224.82832990  .00002719  00000-0  18884-3 0  9993,2 53159  53.2167  63.3250 0000823  83.1169 276.9917 15.08845109 60108,6917.865,95.437,540.299,539.16,0.0
53159.0,STARLINK-4111,PAYLOAD,2023-08-13 18:08:11,15.08842937,9.27e-05,53.2162,59.1602,96.9836,263.1262,0.00010094,1.319e-05,0.0,0 STARLINK-4111,1 53159U 22083AD  23225.75568990  .00001319  00000-0  10094-3 0  9992,2 53159  53.2162  59.1602 0000927  96.9836 263.1262 15.08842937 60247,6917.871,95.437,540.378,539.095,0.0
53159.0,STARLINK-4111,PAYLOAD,2023-08-14 19:34:21,15.08842938,9.38e-05,53.2163,54.4021,87.145,272.965,0.00013178,1.81e-05,0.0,0 STARLINK-4111,1 53159U 22083AD  23226.81553023  .00001810  00000-0  13178-3 0  9993,2 53159  53.2163  54.4021 0000938  87.1450 272.9650 15.08842938 60405,6917.871,95.437,540.385,539.088,0.0
53159.0,STARLINK-4111,PAYLOAD,2023-08-15 14:38:59,15.08834608,9.8e-05,53.2158,50.8347,97.587,262.5233,7.9399e-06,-1.61e-06,0.0,0 STARLINK-4111,1 53159U 22083AD  23227.61041462 -.00000161  00000-0  79399-5 0  9999,2 53159  53.2158  50.8347 0000980  97.5870 262.5233 15.08834608 60528,6917.897,95.438,540.44,539.084,0.0
53159.0,STARLINK-4111,PAYLOAD,2023-08-16 20:51:20,15.08834029,0.0002504,53.2131,45.182,83.2078,276.9199,0.0001914,2.759e-05,0.0,0 STARLINK-4111,1 53159U 22083AD  23228.86898321  .00002759  00000-0  19140-3 0  9991,2 53159  53.2131  45.1820 0002504  83.2078 276.9199 15.08834029 60716,6917.899,95.438,541.496,538.031,0.0
53159.0,STARLINK-4111,PAYLOAD,2023-08-17 11:09:47,15.08840177,0.000125,53.2163,42.5072,84.1175,275.996,0.00015129,2.121e-05,0.0,0 STARLINK-4111,1 53159U 22083AD  23229.46513667  .00002121  00000-0  15129-3 0  9991,2 53159  53.2163  42.5072 0001250  84.1175 275.9960 15.08840177 60802,6917.88,95.438,540.61,538.88,0.0
